STARLINK-2531           
1 48483U 21040BH  26068.65217472 -.00003029  00000+0 -90251-4 0  9996
2 48483  53.1602 194.2459 0001161 115.6639 244.4482 15.30179272266458
TRANSPORTER-10 OBJECT AD
1 59125U 24043AD  26068.86032890  .00011954  00000+0  36311-3 0  9999
2 59125  97.5470 207.3753 0008984 221.4908 138.5653 15.34189901112026
